start=new Date('2022-12-27T00:00:00.000Z').valueOf();
sats=[{"NORAD_CAT_ID":"47390","MEAN_MOTION":"15.06398292","CENTER_NAME":"EARTH","MEAN_MOTION_DOT":"-0.00000108","TIME_SYSTEM":"UTC","MEAN_ELEMENT_THEORY":"SGP4","SEMIMAJOR_AXIS":"6925.354","REV_AT_EPOCH":"10685","CLASSIFICATION_TYPE":"U","OBJECT_NAME":"STARLINK-2111","MEAN_MOTION_DDOT":"0.0000000000000","ARG_OF_PERICENTER":"78.4022","APOAPSIS":"548.125","EPOCH":"2022-12-26T17:57:47.377728","OBJECT_TYPE":"PAYLOAD","PERIOD":"95.592","FILE":"3723236","TLE_LINE1":"1 47390U 21005AT  22360.74846502 -.00000108  00000-0  11609-4 0  9991","MEAN_ANOMALY":"281.7113","REF_FRAME":"TEME","OBJECT_ID":"2021-005AT","TLE_LINE2":"2 47390  53.0535 269.2103 0001308  78.4022 281.7113 15.06398292106852","ECCENTRICITY":"0.00013080","DECAY_DATE":null,"INCLINATION":"53.0535","BSTAR":"0.00001160900000","ELEMENT_SET_NO":"999","RA_OF_ASC_NODE":"269.2103","SITE":"AFETR","COUNTRY_CODE":"US","GP_ID":"221524223","LAUNCH_DATE":"2021-01-20","PERIAPSIS":"546.313","RCS_SIZE":"LARGE","EPHEMERIS_TYPE":"0"},{"SITE":"AFETR","RA_OF_ASC_NODE":"239.4576","ELEMENT_SET_NO":"999","BSTAR":"-0.00020402000000","RCS_SIZE":"LARGE","EPHEMERIS_TYPE":"0","LAUNCH_DATE":"2021-01-20","PERIAPSIS":"546.227","GP_ID":"221522971","COUNTRY_CODE":"US","PERIOD":"95.591","OBJECT_TYPE":"PAYLOAD","INCLINATION":"53.0542","DECAY_DATE":null,"ECCENTRICITY":"0.00013670","TLE_LINE2":"2 47391  53.0542 239.4576 0001367  64.1199 295.9931 15.06412911107262","REF_FRAME":"TEME","OBJECT_ID":"2021-005AU","MEAN_ANOMALY":"295.9931","TLE_LINE1":"1 47391U 21005AU  22360.69131003 -.00003320  00000-0 -20402-3 0  9999","FILE":"3723236","OBJECT_NAME":"STARLINK-2112","CLASSIFICATION_TYPE":"U","REV_AT_EPOCH":"10726","EPOCH":"2022-12-26T16:35:29.186592","APOAPSIS":"548.121","ARG_OF_PERICENTER":"64.1199","MEAN_MOTION_DDOT":"0.0000000000000","TIME_SYSTEM":"UTC","MEAN_MOTION_DOT":"-0.00003320","CENTER_NAME":"EARTH","MEAN_MOTION":"15.06412911","NORAD_CAT_ID":"47391","MEAN_ELEMENT_THEORY":"SGP4","SEMIMAJOR_AXIS":"6925.309"},{"PERIOD":"95.593","OBJECT_TYPE":"PAYLOAD","DECAY_DATE":null,"INCLINATION":"53.0525","FILE":"3723236","TLE_LINE1":"1 47392U 21005AV  22360.69226180  .00000779  00000-0  71205-4 0  9992","MEAN_ANOMALY":"255.6091","ECCENTRICITY":"0.00013430","TLE_LINE2":"2 47392  53.0525 239.4613 0001343 104.5047 255.6091 15.06386674107267","REF_FRAME":"TEME","OBJECT_ID":"2021-005AV","SITE":"AFETR","BSTAR":"0.00007120500000","ELEMENT_SET_NO":"999","RA_OF_ASC_NODE":"239.4613","EPHEMERIS_TYPE":"0","RCS_SIZE":"LARGE","PERIAPSIS":"546.324","LAUNCH_DATE":"2021-01-20","COUNTRY_CODE":"US","GP_ID":"221523221","CENTER_NAME":"EARTH","TIME_SYSTEM":"UTC","MEAN_MOTION_DOT":"0.00000779","MEAN_MOTION":"15.06386674","NORAD_CAT_ID":"47392","SEMIMAJOR_AXIS":"6925.389","MEAN_ELEMENT_THEORY":"SGP4","OBJECT_NAME":"STARLINK-2113","CLASSIFICATION_TYPE":"U","REV_AT_EPOCH":"10726","EPOCH":"2022-12-26T16:36:51.419520","ARG_OF_PERICENTER":"104.5047","MEAN_MOTION_DDOT":"0.0000000000000","APOAPSIS":"548.184"},{"TLE_LINE1":"1 47393U 21005AW  22360.65221710 -.00000549  00000-0 -17959-4 0  9996","MEAN_ANOMALY":"269.1506","FILE":"3723236","ECCENTRICITY":"0.00015860","TLE_LINE2":"2 47393  53.0531 214.9789 0001586  90.9665 269.1506 15.06395350107600","OBJECT_ID":"2021-005AW","REF_FRAME":"TEME","DECAY_DATE":null,"INCLINATION":"53.0531","OBJECT_TYPE":"PAYLOAD","PERIOD":"95.592","COUNTRY_CODE":"US","GP_ID":"221523973","EPHEMERIS_TYPE":"0","RCS_SIZE":"LARGE","LAUNCH_DATE":"2021-01-20","PERIAPSIS":"546.129","ELEMENT_SET_NO":"999","BSTAR":"-0.00001795900000","RA_OF_ASC_NODE":"214.9789","SITE":"AFETR","SEMIMAJOR_AXIS":"6925.363","MEAN_ELEMENT_THEORY":"SGP4","MEAN_MOTION":"15.06395350","NORAD_CAT_ID":"47393","CENTER_NAME":"EARTH","TIME_SYSTEM":"UTC","MEAN_MOTION_DOT":"-0.00000549","ARG_OF_PERICENTER":"90.9665","MEAN_MOTION_DDOT":"0.0000000000000","APOAPSIS":"548.326","EPOCH":"2022-12-26T15:39:11.557440","CLASSIFICATION_TYPE":"U","REV_AT_EPOCH":"10760","OBJECT_NAME":"STARLINK-2114"},{"OBJECT_TYPE":"PAYLOAD","PERIOD":"95.590","TLE_LINE1":"1 47394U 21005AX  22360.91572208 -.00004822  00000-0 -30472-3 0  9999","MEAN_ANOMALY":"262.2020","FILE":"3723236","TLE_LINE2":"2 47394  53.0523 233.6234 0001574  97.9147 262.2020 15.06432781107373","ECCENTRICITY":"0.00015740","REF_FRAME":"TEME","OBJECT_ID":"2021-005AX","DECAY_DATE":null,"INCLINATION":"53.0523","BSTAR":"-0.00030472000000","ELEMENT_SET_NO":"999","RA_OF_ASC_NODE":"233.6234","SITE":"AFETR","COUNTRY_CODE":"US","GP_ID":"221523724","EPHEMERIS_TYPE":"0","RCS_SIZE":"LARGE","LAUNCH_DATE":"2021-01-20","PERIAPSIS":"546.023","MEAN_MOTION":"15.06432781","NORAD_CAT_ID":"47394","CENTER_NAME":"EARTH","TIME_SYSTEM":"UTC","MEAN_MOTION_DOT":"-0.00004822","MEAN_ELEMENT_THEORY":"SGP4","SEMIMAJOR_AXIS":"6925.248","CLASSIFICATION_TYPE":"U","REV_AT_EPOCH":"10737","OBJECT_NAME":"STARLINK-2115","ARG_OF_PERICENTER":"97.9147","MEAN_MOTION_DDOT":"0.0000000000000","APOAPSIS":"548.203","EPOCH":"2022-12-26T21:58:38.387712"},{"TLE_LINE1":"1 47395U 21005AY  22360.67106289  .00000192  00000-0  31789-4 0  9992","FILE":"3723236","MEAN_ANOMALY":"279.0219","REF_FRAME":"TEME","OBJECT_ID":"2021-005AY","ECCENTRICITY":"0.00014130","TLE_LINE2":"2 47395  53.0533 229.5574 0001413  81.0930 279.0219 15.06398466107403","DECAY_DATE":null,"INCLINATION":"53.0533","OBJECT_TYPE":"PAYLOAD","PERIOD":"95.592","COUNTRY_CODE":"US","GP_ID":"221522472","LAUNCH_DATE":"2021-01-20","PERIAPSIS":"546.240","RCS_SIZE":"LARGE","EPHEMERIS_TYPE":"0","BSTAR":"0.00003178900000","ELEMENT_SET_NO":"999","RA_OF_ASC_NODE":"229.5574","SITE":"AFETR","SEMIMAJOR_AXIS":"6925.353","MEAN_ELEMENT_THEORY":"SGP4","NORAD_CAT_ID":"47395","MEAN_MOTION":"15.06398466","CENTER_NAME":"EARTH","TIME_SYSTEM":"UTC","MEAN_MOTION_DOT":"0.00000192","MEAN_MOTION_DDOT":"0.0000000000000","ARG_OF_PERICENTER":"81.0930","APOAPSIS":"548.197","EPOCH":"2022-12-26T16:06:19.833696","REV_AT_EPOCH":"10740","CLASSIFICATION_TYPE":"U","OBJECT_NAME":"STARLINK-2117"},{"TLE_LINE1":"1 47396U 21005AZ  22360.78071872  .00002212  00000-0  16733-3 0  9990","FILE":"3723236","MEAN_ANOMALY":"271.2345","TLE_LINE2":"2 47396  53.0552 239.0671 0001425  88.8807 271.2345 15.06400598107280","ECCENTRICITY":"0.00014250","REF_FRAME":"TEME","OBJECT_ID":"2021-005AZ","DECAY_DATE":null,"INCLINATION":"53.0552","OBJECT_TYPE":"PAYLOAD","PERIOD":"95.592","COUNTRY_CODE":"US","GP_ID":"221522722","RCS_SIZE":"LARGE","EPHEMERIS_TYPE":"0","PERIAPSIS":"546.225","LAUNCH_DATE":"2021-01-20","ELEMENT_SET_NO":"999","BSTAR":"0.00016733000000","RA_OF_ASC_NODE":"239.0671","SITE":"AFETR","MEAN_ELEMENT_THEORY":"SGP4","SEMIMAJOR_AXIS":"6925.347","MEAN_MOTION":"15.06400598","NORAD_CAT_ID":"47396","CENTER_NAME":"EARTH","MEAN_MOTION_DOT":"0.00002212","TIME_SYSTEM":"UTC","ARG_OF_PERICENTER":"88.8807","MEAN_MOTION_DDOT":"0.0000000000000","APOAPSIS":"548.199","EPOCH":"2022-12-26T18:44:14.097408","CLASSIFICATION_TYPE":"U","REV_AT_EPOCH":"10728","OBJECT_NAME":"STARLINK-2118"},{"PERIOD":"95.592","OBJECT_TYPE":"PAYLOAD","DECAY_DATE":null,"INCLINATION":"53.0557","MEAN_ANOMALY":"279.9611","TLE_LINE1":"1 47397U 21005BA  22360.77795265 -.00000458  00000-0 -11889-4 0  9999","FILE":"3723236","ECCENTRICITY":"0.00013580","TLE_LINE2":"2 47397  53.0557 269.0633 0001358  80.1531 279.9611 15.06396411106863","REF_FRAME":"TEME","OBJECT_ID":"2021-005BA","SITE":"AFETR","BSTAR":"-0.00001188900000","ELEMENT_SET_NO":"999","RA_OF_ASC_NODE":"269.0633","RCS_SIZE":"LARGE","EPHEMERIS_TYPE":"0","PERIAPSIS":"546.284","LAUNCH_DATE":"2021-01-20","COUNTRY_CODE":"US","GP_ID":"221523474","CENTER_NAME":"EARTH","MEAN_MOTION_DOT":"-0.00000458","TIME_SYSTEM":"UTC","MEAN_MOTION":"15.06396411","NORAD_CAT_ID":"47397","MEAN_ELEMENT_THEORY":"SGP4","SEMIMAJOR_AXIS":"6925.360","OBJECT_NAME":"STARLINK-2119","CLASSIFICATION_TYPE":"U","REV_AT_EPOCH":"10686","EPOCH":"2022-12-26T18:40:15.108960","ARG_OF_PERICENTER":"80.1531","MEAN_MOTION_DDOT":"0.0000000000000","APOAPSIS":"548.165"},{"TLE_LINE1":"1 47398U 21005BB  22360.68488542  .00001084  00000-0  91656-4 0  9991","FILE":"3723236","MEAN_ANOMALY":"284.5021","REF_FRAME":"TEME","OBJECT_ID":"2021-005BB","ECCENTRICITY":"0.00015770","TLE_LINE2":"2 47398  53.0518 239.4989 0001577  75.6143 284.5021 15.06397529107260","DECAY_DATE":null,"INCLINATION":"53.0518","OBJECT_TYPE":"PAYLOAD","PERIOD":"95.592","COUNTRY_CODE":"US","GP_ID":"221524224","LAUNCH_DATE":"2021-01-20","PERIAPSIS":"546.129","RCS_SIZE":"LARGE","EPHEMERIS_TYPE":"0","ELEMENT_SET_NO":"999","BSTAR":"0.00009165600000","RA_OF_ASC_NODE":"239.4989","SITE":"AFETR","SEMIMAJOR_AXIS":"6925.356","MEAN_ELEMENT_THEORY":"SGP4","NORAD_CAT_ID":"47398","MEAN_MOTION":"15.06397529","CENTER_NAME":"EARTH","TIME_SYSTEM":"UTC","MEAN_MOTION_DOT":"0.00001084","MEAN_MOTION_DDOT":"0.0000000000000","ARG_OF_PERICENTER":"75.6143","APOAPSIS":"548.313","EPOCH":"2022-12-26T16:26:14.100288","REV_AT_EPOCH":"10726","CLASSIFICATION_TYPE":"U","OBJECT_NAME":"STARLINK-2120"},{"OBJECT_TYPE":"PAYLOAD","PERIOD":"95.593","TLE_LINE1":"1 47399U 21005BC  22360.72085311  .00000591  00000-0  58552-4 0  9994","FILE":"3723236","MEAN_ANOMALY":"251.1941","TLE_LINE2":"2 47399  53.0536 249.5702 0001411 108.9201 251.1941 15.06388989107124","ECCENTRICITY":"0.00014110","OBJECT_ID":"2021-005BC","REF_FRAME":"TEME","DECAY_DATE":null,"INCLINATION":"53.0536","BSTAR":"0.00005855200000","ELEMENT_SET_NO":"999","RA_OF_ASC_NODE":"249.5702","SITE":"AFETR","COUNTRY_CODE":"US","GP_ID":"221522972","EPHEMERIS_TYPE":"0","RCS_SIZE":"LARGE","LAUNCH_DATE":"2021-01-20","PERIAPSIS":"546.270","MEAN_MOTION":"15.06388989","NORAD_CAT_ID":"47399","CENTER_NAME":"EARTH","MEAN_MOTION_DOT":"0.00000591","TIME_SYSTEM":"UTC","SEMIMAJOR_AXIS":"6925.382","MEAN_ELEMENT_THEORY":"SGP4","CLASSIFICATION_TYPE":"U","REV_AT_EPOCH":"10712","OBJECT_NAME":"STARLINK-2121","ARG_OF_PERICENTER":"108.9201","MEAN_MOTION_DDOT":"0.0000000000000","APOAPSIS":"548.224","EPOCH":"2022-12-26T17:18:01.708704"}];
